start=new Date('2021-09-13T00:00:00.000Z').valueOf();
sats=[{"CLASSIFICATION_TYPE":"U","TLE_LINE2":"2 45411  53.0538 294.8712 0000512 104.0662 256.0384 15.06392811 82836","TIME_SYSTEM":"UTC","ELEMENT_SET_NO":"999","REF_FRAME":"TEME","MEAN_MOTION_DOT":"0.00001045","COUNTRY_CODE":"US","MEAN_MOTION":"15.06392811","BSTAR":"0.00008905600000","APOAPSIS":"547.590","NORAD_CAT_ID":"45411","SEMIMAJOR_AXIS":"6925.371","CENTER_NAME":"EARTH","OBJECT_TYPE":"PAYLOAD","RA_OF_ASC_NODE":"294.8712","EPOCH":"2021-09-12T13:54:48.180384","ECCENTRICITY":"0.00005120","GP_ID":"184598312","FILE":"3114195","RCS_SIZE":"LARGE","TLE_LINE1":"1 45411U 20019BD  21255.57972431  .00001045  00000-0  89056-4 0  9992","MEAN_ELEMENT_THEORY":"SGP4","OBJECT_NAME":"STARLINK-1293","REV_AT_EPOCH":"8283","SITE":"AFETR","PERIOD":"95.593","INCLINATION":"53.0538","EPHEMERIS_TYPE":"0","PERIAPSIS":"546.881","DECAY_DATE":null,"MEAN_ANOMALY":"256.0384","LAUNCH_DATE":"2020-03-18","ARG_OF_PERICENTER":"104.0662","MEAN_MOTION_DDOT":"0.0000000000000","OBJECT_ID":"2020-019BD"},{"APOAPSIS":"547.704","SEMIMAJOR_AXIS":"6925.424","NORAD_CAT_ID":"45412","CENTER_NAME":"EARTH","EPOCH":"2021-09-13T00:00:00.999648","RA_OF_ASC_NODE":"292.9878","OBJECT_TYPE":"PAYLOAD","ECCENTRICITY":"0.00005990","GP_ID":"184599050","TIME_SYSTEM":"UTC","TLE_LINE2":"2 45412  53.0540 292.9878 0000599 110.4378 190.1948 15.06375485  3578","CLASSIFICATION_TYPE":"U","ELEMENT_SET_NO":"999","REF_FRAME":"TEME","MEAN_MOTION_DOT":"0.00043358","COUNTRY_CODE":"US","MEAN_MOTION":"15.06375485","BSTAR":"0.00291380000000","INCLINATION":"53.0540","EPHEMERIS_TYPE":"0","PERIAPSIS":"546.874","DECAY_DATE":null,"LAUNCH_DATE":"2020-03-18","ARG_OF_PERICENTER":"110.4378","MEAN_ANOMALY":"190.1948","MEAN_MOTION_DDOT":"0.0000000000000","OBJECT_ID":"2020-019BE","FILE":"3114195","RCS_SIZE":"LARGE","MEAN_ELEMENT_THEORY":"SGP4","TLE_LINE1":"1 45412U 20019BE  21256.00001157  .00043358  00000-0  29138-2 0  9996","OBJECT_NAME":"STARLINK-1296","REV_AT_EPOCH":"357","PERIOD":"95.594","SITE":"AFETR"},{"NORAD_CAT_ID":"45413","SEMIMAJOR_AXIS":"6925.369","CENTER_NAME":"EARTH","APOAPSIS":"547.577","GP_ID":"184597311","OBJECT_TYPE":"PAYLOAD","RA_OF_ASC_NODE":"294.0018","EPOCH":"2021-09-12T18:36:06.845472","ECCENTRICITY":"0.00004950","ELEMENT_SET_NO":"999","REF_FRAME":"TEME","CLASSIFICATION_TYPE":"U","TLE_LINE2":"2 45413  53.0554 294.0018 0000495 107.2359 252.8684 15.06393249 82939","TIME_SYSTEM":"UTC","MEAN_MOTION":"15.06393249","BSTAR":"-0.00004949500000","MEAN_MOTION_DOT":"-0.00001018","COUNTRY_CODE":"US","EPHEMERIS_TYPE":"0","PERIAPSIS":"546.891","DECAY_DATE":null,"INCLINATION":"53.0554","MEAN_MOTION_DDOT":"0.0000000000000","OBJECT_ID":"2020-019BF","MEAN_ANOMALY":"252.8684","ARG_OF_PERICENTER":"107.2359","LAUNCH_DATE":"2020-03-18","RCS_SIZE":"LARGE","MEAN_ELEMENT_THEORY":"SGP4","TLE_LINE1":"1 45413U 20019BF  21255.77507923 -.00001018  00000-0 -49495-4 0  9991","FILE":"3114195","SITE":"AFETR","PERIOD":"95.593","OBJECT_NAME":"STARLINK-1298","REV_AT_EPOCH":"8293"},{"GP_ID":"184570851","EPOCH":"2021-09-12T10:17:10.921632","OBJECT_TYPE":"PAYLOAD","RA_OF_ASC_NODE":"295.5573","ECCENTRICITY":"0.00008820","SEMIMAJOR_AXIS":"6925.364","NORAD_CAT_ID":"45414","CENTER_NAME":"EARTH","APOAPSIS":"547.840","MEAN_MOTION":"15.06395062","BSTAR":"0.00009228100000","MEAN_MOTION_DOT":"0.00001093","COUNTRY_CODE":"US","ELEMENT_SET_NO":"999","REF_FRAME":"TEME","TIME_SYSTEM":"UTC","TLE_LINE2":"2 45414  53.0553 295.5573 0000882 113.3759 246.7323 15.06395062 82772","CLASSIFICATION_TYPE":"U","MEAN_MOTION_DDOT":"0.0000000000000","OBJECT_ID":"2020-019BG","ARG_OF_PERICENTER":"113.3759","LAUNCH_DATE":"2020-03-18","MEAN_ANOMALY":"246.7323","PERIAPSIS":"546.618","EPHEMERIS_TYPE":"0","DECAY_DATE":null,"INCLINATION":"53.0553","PERIOD":"95.592","SITE":"AFETR","OBJECT_NAME":"STARLINK-1309","REV_AT_EPOCH":"8277","RCS_SIZE":"LARGE","MEAN_ELEMENT_THEORY":"SGP4","TLE_LINE1":"1 45414U 20019BG  21255.42859863  .00001093  00000-0  92281-4 0  9999","FILE":"3114003"},{"OBJECT_NAME":"STARLINK-1316","REV_AT_EPOCH":"8286","SITE":"AFETR","PERIOD":"95.593","FILE":"3114195","RCS_SIZE":"LARGE","MEAN_ELEMENT_THEORY":"SGP4","TLE_LINE1":"1 45415U 20019BH  21255.78613220  .00001456  00000-0  11662-3 0  9990","MEAN_ANOMALY":"241.1935","LAUNCH_DATE":"2020-03-18","ARG_OF_PERICENTER":"118.9127","MEAN_MOTION_DDOT":"0.0000000000000","OBJECT_ID":"2020-019BH","INCLINATION":"53.0525","PERIAPSIS":"546.732","EPHEMERIS_TYPE":"0","DECAY_DATE":null,"COUNTRY_CODE":"US","MEAN_MOTION_DOT":"0.00001456","MEAN_MOTION":"15.06394324","BSTAR":"0.00011662000000","CLASSIFICATION_TYPE":"U","TLE_LINE2":"2 45415  53.0525 293.9538 0000721 118.9127 241.1935 15.06394324 82865","TIME_SYSTEM":"UTC","ELEMENT_SET_NO":"999","REF_FRAME":"TEME","OBJECT_TYPE":"PAYLOAD","RA_OF_ASC_NODE":"293.9538","EPOCH":"2021-09-12T18:52:01.822080","ECCENTRICITY":"0.00007210","GP_ID":"184598813","APOAPSIS":"547.730","SEMIMAJOR_AXIS":"6925.366","NORAD_CAT_ID":"45415","CENTER_NAME":"EARTH"},{"BSTAR":"0.00002708200000","MEAN_MOTION":"15.06399552","COUNTRY_CODE":"US","MEAN_MOTION_DOT":"0.00000122","REF_FRAME":"TEME","ELEMENT_SET_NO":"999","CLASSIFICATION_TYPE":"U","TIME_SYSTEM":"UTC","TLE_LINE2":"2 45416  53.0540 295.2904 0000948 103.9368 256.1726 15.06399552 82803","GP_ID":"184598550","ECCENTRICITY":"0.00009480","RA_OF_ASC_NODE":"295.2904","OBJECT_TYPE":"PAYLOAD","EPOCH":"2021-09-12T11:42:06.322752","CENTER_NAME":"EARTH","SEMIMAJOR_AXIS":"6925.350","NORAD_CAT_ID":"45416","APOAPSIS":"547.871","PERIOD":"95.592","SITE":"AFETR","REV_AT_EPOCH":"8280","OBJECT_NAME":"STARLINK-1318","TLE_LINE1":"1 45416U 20019BJ  21255.48757318  .00000122  00000-0  27082-4 0  9998","MEAN_ELEMENT_THEORY":"SGP4","RCS_SIZE":"LARGE","FILE":"3114195","OBJECT_ID":"2020-019BJ","MEAN_MOTION_DDOT":"0.0000000000000","MEAN_ANOMALY":"256.1726","LAUNCH_DATE":"2020-03-18","ARG_OF_PERICENTER":"103.9368","DECAY_DATE":null,"EPHEMERIS_TYPE":"0","PERIAPSIS":"546.558","INCLINATION":"53.0540"},{"APOAPSIS":"547.749","NORAD_CAT_ID":"45417","SEMIMAJOR_AXIS":"6925.356","CENTER_NAME":"EARTH","EPOCH":"2021-09-12T14:59:49.398720","RA_OF_ASC_NODE":"324.6765","OBJECT_TYPE":"PAYLOAD","ECCENTRICITY":"0.00007620","GP_ID":"184597812","TLE_LINE2":"2 45417  53.0562 324.6765 0000762  95.8846 264.2230 15.06397518 82679","TIME_SYSTEM":"UTC","CLASSIFICATION_TYPE":"U","ELEMENT_SET_NO":"999","REF_FRAME":"TEME","COUNTRY_CODE":"US","MEAN_MOTION_DOT":"0.00001177","MEAN_MOTION":"15.06397518","BSTAR":"0.00009791800000","INCLINATION":"53.0562","EPHEMERIS_TYPE":"0","PERIAPSIS":"546.693","DECAY_DATE":null,"LAUNCH_DATE":"2020-03-18","ARG_OF_PERICENTER":"95.8846","MEAN_ANOMALY":"264.2230","MEAN_MOTION_DDOT":"0.0000000000000","OBJECT_ID":"2020-019BK","FILE":"3114195","RCS_SIZE":"LARGE","TLE_LINE1":"1 45417U 20019BK  21255.62487730  .00001177  00000-0  97918-4 0  9999","MEAN_ELEMENT_THEORY":"SGP4","OBJECT_NAME":"STARLINK-1286","REV_AT_EPOCH":"8267","PERIOD":"95.592","SITE":"AFETR"},{"REV_AT_EPOCH":"8217","OBJECT_NAME":"STARLINK-1299","PERIOD":"95.942","SITE":"AFETR","FILE":"3114195","MEAN_ELEMENT_THEORY":"SGP4","TLE_LINE1":"1 45418U 20019BL  21255.62791481  .00002337  00000-0  20231-3 0  9993","RCS_SIZE":"LARGE","ARG_OF_PERICENTER":"97.7111","LAUNCH_DATE":"2020-03-18","MEAN_ANOMALY":"262.4014","OBJECT_ID":"2020-019BL","MEAN_MOTION_DDOT":"0.0000000000000","INCLINATION":"53.0026","DECAY_DATE":null,"EPHEMERIS_TYPE":"0","PERIAPSIS":"563.259","MEAN_MOTION_DOT":"0.00002337","COUNTRY_CODE":"US","BSTAR":"0.00020231000000","MEAN_MOTION":"15.00903787","TLE_LINE2":"2 45418  53.0026 340.7018 0001226  97.7111 262.4014 15.00903787 82177","TIME_SYSTEM":"UTC","CLASSIFICATION_TYPE":"U","REF_FRAME":"TEME","ELEMENT_SET_NO":"999","ECCENTRICITY":"0.00012260","EPOCH":"2021-09-12T15:04:11.839584","OBJECT_TYPE":"PAYLOAD","RA_OF_ASC_NODE":"340.7018","GP_ID":"184598062","APOAPSIS":"564.961","CENTER_NAME":"EARTH","SEMIMAJOR_AXIS":"6942.245","NORAD_CAT_ID":"45418"},{"BSTAR":"0.00001974200000","MEAN_MOTION":"15.06392167","MEAN_MOTION_DOT":"0.00000013","COUNTRY_CODE":"US","REF_FRAME":"TEME","ELEMENT_SET_NO":"999","TIME_SYSTEM":"UTC","TLE_LINE2":"2 45419  53.0542 324.3972 0000938 114.8963 245.2124 15.06392167 82433","CLASSIFICATION_TYPE":"U","GP_ID":"184598313","ECCENTRICITY":"0.00009380","EPOCH":"2021-09-12T16:30:03.126816","RA_OF_ASC_NODE":"324.3972","OBJECT_TYPE":"PAYLOAD","CENTER_NAME":"EARTH","SEMIMAJOR_AXIS":"6925.373","NORAD_CAT_ID":"45419","APOAPSIS":"547.887","SITE":"AFETR","PERIOD":"95.593","REV_AT_EPOCH":"8243","OBJECT_NAME":"STARLINK-1308","TLE_LINE1":"1 45419U 20019BM  21255.68753619  .00000013  00000-0  19742-4 0  9996","MEAN_ELEMENT_THEORY":"SGP4","RCS_SIZE":"LARGE","FILE":"3114195","OBJECT_ID":"2020-019BM","MEAN_MOTION_DDOT":"0.0000000000000","LAUNCH_DATE":"2020-03-18","ARG_OF_PERICENTER":"114.8963","MEAN_ANOMALY":"245.2124","DECAY_DATE":null,"EPHEMERIS_TYPE":"0","PERIAPSIS":"546.588","INCLINATION":"53.0542"},{"OBJECT_ID":"2020-025A","MEAN_MOTION_DDOT":"0.0000000000000","MEAN_ANOMALY":"285.5784","ARG_OF_PERICENTER":"74.5333","LAUNCH_DATE":"2020-04-22","DECAY_DATE":null,"PERIAPSIS":"546.410","EPHEMERIS_TYPE":"0","INCLINATION":"53.0531","PERIOD":"95.592","SITE":"AFETR","REV_AT_EPOCH":"7803","OBJECT_NAME":"STARLINK-1329","TLE_LINE1":"1 45531U 20025A   21255.52352187  .00001039  00000-0  88645-4 0  9993","MEAN_ELEMENT_THEORY":"SGP4","RCS_SIZE":"LARGE","FILE":"3114195","GP_ID":"184597824","ECCENTRICITY":"0.00011690","RA_OF_ASC_NODE":"265.1189","OBJECT_TYPE":"PAYLOAD","EPOCH":"2021-09-12T12:33:52.289568","CENTER_NAME":"EARTH","SEMIMAJOR_AXIS":"6925.355","NORAD_CAT_ID":"45531","APOAPSIS":"548.030","BSTAR":"0.00008864500000","MEAN_MOTION":"15.06397922","COUNTRY_CODE":"US","MEAN_MOTION_DOT":"0.00001039","REF_FRAME":"TEME","ELEMENT_SET_NO":"999","CLASSIFICATION_TYPE":"U","TLE_LINE2":"2 45531  53.0531 265.1189 0001169  74.5333 285.5784 15.06397922 78032","TIME_SYSTEM":"UTC"}];
